start=new Date('2022-04-03T00:00:00.000Z').valueOf();
sats=[{"DECAY_DATE":null,"ECCENTRICITY":"0.00020980","SEMIMAJOR_AXIS":"6917.789","EPHEMERIS_TYPE":"0","MEAN_MOTION":"15.08869965","OBJECT_NAME":"STARLINK-3144","PERIOD":"95.436","PERIAPSIS":"538.202","OBJECT_ID":"2021-104E","TLE_LINE1":"1 49412U 21104E   22092.91668981 -.00111927  00000-0 -71190-2 0  9994","REV_AT_EPOCH":"360","TLE_LINE2":"2 49412  53.2174 199.0507 0002098  29.3783   9.5610 15.08869965  3603","BSTAR":"-0.00711900000000","RCS_SIZE":"LARGE","MEAN_ELEMENT_THEORY":"SGP4","MEAN_MOTION_DDOT":"0.0000000000000","TIME_SYSTEM":"UTC","ELEMENT_SET_NO":"999","INCLINATION":"53.2174","COUNTRY_CODE":"US","LAUNCH_DATE":"2021-11-13","NORAD_CAT_ID":"49412","EPOCH":"2022-04-02T22:00:01.999584","MEAN_MOTION_DOT":"-0.00111927","OBJECT_TYPE":"PAYLOAD","ARG_OF_PERICENTER":"29.3783","APOAPSIS":"541.105","CLASSIFICATION_TYPE":"U","RA_OF_ASC_NODE":"199.0507","SITE":"AFETR","REF_FRAME":"TEME","MEAN_ANOMALY":"9.5610","GP_ID":"200324454","FILE":"3385473","CENTER_NAME":"EARTH"},{"TLE_LINE1":"1 49413U 21104F   22092.91668981 -.00071160  00000-0 -44959-2 0  9992","OBJECT_ID":"2021-104F","PERIOD":"95.437","PERIAPSIS":"538.373","OBJECT_NAME":"STARLINK-3157","MEAN_MOTION":"15.08852406","EPHEMERIS_TYPE":"0","SEMIMAJOR_AXIS":"6917.842","ECCENTRICITY":"0.00019290","DECAY_DATE":null,"TIME_SYSTEM":"UTC","MEAN_MOTION_DDOT":"0.0000000000000","BSTAR":"-0.00449590000000","RCS_SIZE":"LARGE","MEAN_ELEMENT_THEORY":"SGP4","TLE_LINE2":"2 49413  53.2174 189.0546 0001929  36.8978  77.0363 15.08852406  3604","REV_AT_EPOCH":"360","ARG_OF_PERICENTER":"36.8978","OBJECT_TYPE":"PAYLOAD","MEAN_MOTION_DOT":"-0.00071160","EPOCH":"2022-04-02T22:00:01.999584","NORAD_CAT_ID":"49413","LAUNCH_DATE":"2021-11-13","COUNTRY_CODE":"US","INCLINATION":"53.2174","ELEMENT_SET_NO":"999","CENTER_NAME":"EARTH","FILE":"3385473","GP_ID":"200324704","REF_FRAME":"TEME","MEAN_ANOMALY":"77.0363","SITE":"AFETR","RA_OF_ASC_NODE":"189.0546","CLASSIFICATION_TYPE":"U","APOAPSIS":"541.042"},{"MEAN_MOTION":"15.08856912","EPHEMERIS_TYPE":"0","SEMIMAJOR_AXIS":"6917.829","ECCENTRICITY":"0.00020280","DECAY_DATE":null,"TLE_LINE1":"1 49414U 21104G   22092.91668981 -.00097494  00000-0 -61884-2 0  9997","OBJECT_ID":"2021-104G","PERIAPSIS":"538.291","PERIOD":"95.436","OBJECT_NAME":"STARLINK-3146","RCS_SIZE":"LARGE","MEAN_ELEMENT_THEORY":"SGP4","BSTAR":"-0.00618840000000","TLE_LINE2":"2 49414  53.2155 199.0516 0002028  30.7409  48.2098 15.08856912  3606","REV_AT_EPOCH":"360","TIME_SYSTEM":"UTC","MEAN_MOTION_DDOT":"0.0000000000000","MEAN_MOTION_DOT":"-0.00097494","EPOCH":"2022-04-02T22:00:01.999584","NORAD_CAT_ID":"49414","LAUNCH_DATE":"2021-11-13","COUNTRY_CODE":"US","INCLINATION":"53.2155","ELEMENT_SET_NO":"999","ARG_OF_PERICENTER":"30.7409","OBJECT_TYPE":"PAYLOAD","MEAN_ANOMALY":"48.2098","REF_FRAME":"TEME","SITE":"AFETR","RA_OF_ASC_NODE":"199.0516","CLASSIFICATION_TYPE":"U","APOAPSIS":"541.097","CENTER_NAME":"EARTH","FILE":"3385473","GP_ID":"200324955"},{"CLASSIFICATION_TYPE":"U","RA_OF_ASC_NODE":"189.0545","APOAPSIS":"541.234","MEAN_ANOMALY":"107.6646","REF_FRAME":"TEME","SITE":"AFETR","CENTER_NAME":"EARTH","FILE":"3385473","GP_ID":"200325706","LAUNCH_DATE":"2021-11-13","ELEMENT_SET_NO":"999","COUNTRY_CODE":"US","INCLINATION":"53.2176","EPOCH":"2022-04-02T22:00:01.999584","MEAN_MOTION_DOT":"-0.00078693","NORAD_CAT_ID":"49415","ARG_OF_PERICENTER":"26.2511","OBJECT_TYPE":"PAYLOAD","TLE_LINE2":"2 49415  53.2176 189.0545 0002250  26.2511 107.6646 15.08862243  3605","RCS_SIZE":"LARGE","MEAN_ELEMENT_THEORY":"SGP4","BSTAR":"-0.00497760000000","REV_AT_EPOCH":"360","MEAN_MOTION_DDOT":"0.0000000000000","TIME_SYSTEM":"UTC","SEMIMAJOR_AXIS":"6917.812","DECAY_DATE":null,"ECCENTRICITY":"0.00022500","MEAN_MOTION":"15.08862243","EPHEMERIS_TYPE":"0","OBJECT_NAME":"STARLINK-3159","PERIOD":"95.436","PERIAPSIS":"538.121","TLE_LINE1":"1 49415U 21104H   22092.91668981 -.00078693  00000-0 -49776-2 0  9994","OBJECT_ID":"2021-104H"},{"OBJECT_TYPE":"PAYLOAD","ARG_OF_PERICENTER":"34.0739","NORAD_CAT_ID":"49416","MEAN_MOTION_DOT":"-0.00094666","EPOCH":"2022-04-02T22:00:01.999584","COUNTRY_CODE":"US","INCLINATION":"53.2152","ELEMENT_SET_NO":"999","LAUNCH_DATE":"2021-11-13","GP_ID":"200323954","FILE":"3385473","CENTER_NAME":"EARTH","SITE":"AFETR","REF_FRAME":"TEME","MEAN_ANOMALY":"84.8818","APOAPSIS":"541.190","RA_OF_ASC_NODE":"199.0425","CLASSIFICATION_TYPE":"U","OBJECT_ID":"2021-104J","TLE_LINE1":"1 49416U 21104J   22092.91668981 -.00094666  00000-0 -60057-2 0  9998","PERIAPSIS":"538.190","PERIOD":"95.436","OBJECT_NAME":"STARLINK-3133","MEAN_MOTION":"15.08858116","EPHEMERIS_TYPE":"0","ECCENTRICITY":"0.00021690","DECAY_DATE":null,"SEMIMAJOR_AXIS":"6917.825","TIME_SYSTEM":"UTC","MEAN_MOTION_DDOT":"0.0000000000000","REV_AT_EPOCH":"357","RCS_SIZE":"LARGE","MEAN_ELEMENT_THEORY":"SGP4","BSTAR":"-0.00600570000000","TLE_LINE2":"2 49416  53.2152 199.0425 0002169  34.0739  84.8818 15.08858116  3573"},{"EPHEMERIS_TYPE":"0","MEAN_MOTION":"15.08831124","ECCENTRICITY":"0.00019660","DECAY_DATE":null,"SEMIMAJOR_AXIS":"6917.908","OBJECT_ID":"2021-104K","TLE_LINE1":"1 49417U 21104K   22092.55719094 -.00001955  00000-0 -10476-3 0  9991","PERIAPSIS":"538.412","PERIOD":"95.438","OBJECT_NAME":"STARLINK-3154","REV_AT_EPOCH":"2180","BSTAR":"-0.00010476000000","RCS_SIZE":"LARGE","MEAN_ELEMENT_THEORY":"SGP4","TLE_LINE2":"2 49417  53.2171 190.6634 0001966  38.4018 321.7114 15.08831124 21804","TIME_SYSTEM":"UTC","MEAN_MOTION_DDOT":"0.0000000000000","NORAD_CAT_ID":"49417","MEAN_MOTION_DOT":"-0.00001955","EPOCH":"2022-04-02T13:22:21.297216","INCLINATION":"53.2171","COUNTRY_CODE":"US","ELEMENT_SET_NO":"999","LAUNCH_DATE":"2021-11-13","OBJECT_TYPE":"PAYLOAD","ARG_OF_PERICENTER":"38.4018","SITE":"AFETR","MEAN_ANOMALY":"321.7114","REF_FRAME":"TEME","APOAPSIS":"541.133","RA_OF_ASC_NODE":"190.6634","CLASSIFICATION_TYPE":"U","GP_ID":"200324204","FILE":"3385473","CENTER_NAME":"EARTH"},{"ARG_OF_PERICENTER":"30.2234","OBJECT_TYPE":"PAYLOAD","LAUNCH_DATE":"2021-11-13","INCLINATION":"53.2166","COUNTRY_CODE":"US","ELEMENT_SET_NO":"999","MEAN_MOTION_DOT":"-0.00100507","EPOCH":"2022-04-02T22:00:01.999584","NORAD_CAT_ID":"49418","CENTER_NAME":"EARTH","FILE":"3385473","GP_ID":"200325456","RA_OF_ASC_NODE":"199.0398","CLASSIFICATION_TYPE":"U","APOAPSIS":"541.231","REF_FRAME":"TEME","MEAN_ANOMALY":"108.7108","SITE":"AFETR","PERIAPSIS":"538.150","PERIOD":"95.436","OBJECT_NAME":"STARLINK-3111","TLE_LINE1":"1 49418U 21104L   22092.91668981 -.00100507  00000-0 -63826-2 0  9999","OBJECT_ID":"2021-104L","SEMIMAJOR_AXIS":"6917.825","ECCENTRICITY":"0.00022270","DECAY_DATE":null,"EPHEMERIS_TYPE":"0","MEAN_MOTION":"15.08857971","MEAN_MOTION_DDOT":"0.0000000000000","TIME_SYSTEM":"UTC","RCS_SIZE":"LARGE","MEAN_ELEMENT_THEORY":"SGP4","BSTAR":"-0.00638260000000","TLE_LINE2":"2 49418  53.2166 199.0398 0002227  30.2234 108.7108 15.08857971  3567","REV_AT_EPOCH":"356"},{"TLE_LINE1":"1 49419U 21104M   22092.91668981 -.00079341  00000-0 -50210-2 0  9994","OBJECT_ID":"2021-104M","OBJECT_NAME":"STARLINK-3120","PERIOD":"95.437","PERIAPSIS":"538.241","EPHEMERIS_TYPE":"0","MEAN_MOTION":"15.08849197","SEMIMAJOR_AXIS":"6917.852","DECAY_DATE":null,"ECCENTRICITY":"0.00021340","TIME_SYSTEM":"UTC","MEAN_MOTION_DDOT":"0.0000000000000","TLE_LINE2":"2 49419  53.2167 199.0388 0002134  33.6120 165.3483 15.08849197  3562","BSTAR":"-0.00502100000000","RCS_SIZE":"LARGE","MEAN_ELEMENT_THEORY":"SGP4","REV_AT_EPOCH":"356","ARG_OF_PERICENTER":"33.6120","OBJECT_TYPE":"PAYLOAD","EPOCH":"2022-04-02T22:00:01.999584","MEAN_MOTION_DOT":"-0.00079341","NORAD_CAT_ID":"49419","LAUNCH_DATE":"2021-11-13","ELEMENT_SET_NO":"999","INCLINATION":"53.2167","COUNTRY_CODE":"US","CENTER_NAME":"EARTH","FILE":"3385473","GP_ID":"200325206","REF_FRAME":"TEME","MEAN_ANOMALY":"165.3483","SITE":"AFETR","CLASSIFICATION_TYPE":"U","RA_OF_ASC_NODE":"199.0388","APOAPSIS":"541.194"},{"OBJECT_ID":"2021-104N","TLE_LINE1":"1 49420U 21104N   22092.91668981 -.00102433  00000-0 -65071-2 0  9996","PERIAPSIS":"538.189","PERIOD":"95.436","OBJECT_NAME":"STARLINK-3110","MEAN_MOTION":"15.08857497","EPHEMERIS_TYPE":"0","ECCENTRICITY":"0.00021730","DECAY_DATE":null,"SEMIMAJOR_AXIS":"6917.827","TIME_SYSTEM":"UTC","MEAN_MOTION_DDOT":"0.0000000000000","REV_AT_EPOCH":"356","RCS_SIZE":"LARGE","BSTAR":"-0.00650710000000","MEAN_ELEMENT_THEORY":"SGP4","TLE_LINE2":"2 49420  53.2156 199.0348 0002173  32.8434 126.0868 15.08857497  3563","OBJECT_TYPE":"PAYLOAD","ARG_OF_PERICENTER":"32.8434","NORAD_CAT_ID":"49420","MEAN_MOTION_DOT":"-0.00102433","EPOCH":"2022-04-02T22:00:01.999584","INCLINATION":"53.2156","COUNTRY_CODE":"US","ELEMENT_SET_NO":"999","LAUNCH_DATE":"2021-11-13","GP_ID":"200324455","FILE":"3385473","CENTER_NAME":"EARTH","SITE":"AFETR","MEAN_ANOMALY":"126.0868","REF_FRAME":"TEME","APOAPSIS":"541.195","RA_OF_ASC_NODE":"199.0348","CLASSIFICATION_TYPE":"U"},{"FILE":"3385473","GP_ID":"200324705","CENTER_NAME":"EARTH","APOAPSIS":"541.225","CLASSIFICATION_TYPE":"U","RA_OF_ASC_NODE":"199.0367","SITE":"AFETR","REF_FRAME":"TEME","MEAN_ANOMALY":"198.3468","OBJECT_TYPE":"PAYLOAD","ARG_OF_PERICENTER":"40.6245","ELEMENT_SET_NO":"999","COUNTRY_CODE":"US","INCLINATION":"53.2167","LAUNCH_DATE":"2021-11-13","NORAD_CAT_ID":"49421","EPOCH":"2022-04-02T22:00:01.999584","MEAN_MOTION_DOT":"-0.00010068","MEAN_MOTION_DDOT":"0.0000000000000","TIME_SYSTEM":"UTC","REV_AT_EPOCH":"356","TLE_LINE2":"2 49421  53.2167 199.0367 0002063  40.6245 198.3468 15.08822697  3564","RCS_SIZE":"LARGE","MEAN_ELEMENT_THEORY":"SGP4","BSTAR":"-0.00061559000000","OBJECT_NAME":"STARLINK-3112","PERIOD":"95.439","PERIAPSIS":"538.371","OBJECT_ID":"2021-104P","TLE_LINE1":"1 49421U 21104P   22092.91668981 -.00010068  00000-0 -61559-3 0  9997","DECAY_DATE":null,"ECCENTRICITY":"0.00020630","SEMIMAJOR_AXIS":"6917.933","EPHEMERIS_TYPE":"0","MEAN_MOTION":"15.08822697"}];
